[{"OBJECT_NAME":"OBJECT K","OBJECT_ID":"2024-092K","EPOCH":"2026-03-09T22:27:09.905184","MEAN_MOTION":15.32834875,"ECCENTRICITY":0.00087198,"INCLINATION":97.6413,"RA_OF_ASC_NODE":198.1023,"ARG_OF_PERICENTER":142.4952,"MEAN_ANOMALY":217.69,"EPHEMERIS_TYPE":0,"CLASSIFICATION_TYPE":"U","NORAD_CAT_ID":59809,"ELEMENT_SET_NO":999,"REV_AT_EPOCH":10001,"BSTAR":0.0007267688,"MEAN_MOTION_DOT":0.00023035,"MEAN_MOTION_DDOT":0},{"OBJECT_NAME":"STARLINK-35327","OBJECT_ID":"2025-259T","EPOCH":"2026-03-09T22:29:05.646624","MEAN_MOTION":15.27606617,"ECCENTRICITY":0.00033465,"INCLINATION":43.0054,"RA_OF_ASC_NODE":272.5565,"ARG_OF_PERICENTER":265.1757,"MEAN_ANOMALY":94.8713,"EPHEMERIS_TYPE":0,"CLASSIFICATION_TYPE":"U","NORAD_CAT_ID":66439,"ELEMENT_SET_NO":999,"REV_AT_EPOCH":1953,"BSTAR":0.00092889231,"MEAN_MOTION_DOT":0.0002541,"MEAN_MOTION_DDOT":0}]
